ANIK G1                 
1 39127U 13014A   21208.36994003 -.00000088  00000-0  00000+0 0  9994
2 39127   0.0123 135.1493 0002873   4.4042 191.5690  1.00271871 30348
CHINASAT 11 (ZX 11)     
1 39157U 13020A   21208.05586587 -.00000305  00000-0  00000+0 0  9996
2 39157   0.0625 263.6968 0001544 181.5860 337.7545  1.00270390 30248
EUTELSAT 7B             
1 39163U 13022A   21208.10949031  .00000033  00000-0  00000+0 0  9995
2 39163   0.0676 354.3592 0002898  53.0173 304.0147  1.00271654 30064
WGS F5 (USA 243)        
1 39168U 13024A   21208.41880028 -.00000298  00000-0  00000+0 0  9990
2 39168   0.0164  79.4694 0000452  89.6585 234.4418  1.00272318 29923
SES-6                   
1 39172U 13026A   21208.10006883 -.00000276  00000-0  00000+0 0  9998
2 39172   0.0631 282.4991 0002790 216.3148 161.6978  1.00273347 29806
IRNSS-1A                
1 39199U 13034A   21207.76785618  .00000060  00000-0  00000+0 0  9997
2 39199  31.7099  90.3982 0018884 178.5974   7.1514  1.00272352 29734
MUOS-2                  
1 39206U 13036A   21208.43185229  .00000051  00000-0  00000+0 0  9995
2 39206   2.5452  11.3519 0056366 176.7357  95.6628  1.00271797 29407
ALPHASAT                
1 39215U 13038A   21208.32836206  .00000121  00000-0  00000+0 0  9991
2 39215   2.5958  16.6150 0002485 127.1741 304.4824  1.00273769 29362
INSAT-3D                
1 39216U 13038B   21208.07975418 -.00000171  00000-0  00000+0 0  9999
2 39216   0.0300 102.1091 0001749  39.0680 274.5911  1.00271764 29397
WGS F6 (USA 244)        
1 39222U 13041A   21207.50696237  .00000073  00000-0  00000+0 0  9996
2 39222   0.0173  53.0290 0000404 113.3361 185.3250  1.00271748 29157
ES'HAIL 1               
1 39233U 13044A   21207.53897799  .00000127  00000-0  00000-0 0  9991
2 39233   0.0468  15.9543 0002006 105.9325  42.0500  1.00271681 28726
GSAT-7                  
1 39234U 13044B   21208.40992766 -.00000091  00000-0  00000+0 0  9999
2 39234   0.0428 106.3374 0005755 143.6002 276.9355  1.00271538 28991
AMOS-4                  
1 39237U 13045A   21207.75535427 -.00000008  00000-0  00000+0 0  9995
2 39237   0.0303 264.1798 0001821 201.7940 175.6103  1.00272182 28976
AEHF-3 (USA 246)        
1 39256U 13050A   21207.99285553 -.00000264  00000-0  00000+0 0  9994
2 39256   0.9875  59.9394 0026627 191.4860 179.1646  1.00926292 28776
ASTRA 2E                
1 39285U 13056A   21208.37966047  .00000136  00000-0  00000+0 0  9996
2 39285   0.0646 338.5307 0002781 148.7095 343.1589  1.00273881 28683
FM-6                    
1 39360U 13058A   21208.09012618 -.00000032  00000-0  00000+0 0  9993
2 39360   0.0457 265.5648 0000722  97.7390 217.9675  1.00270505 28435
RADUGA-1M 3             
1 39375U 13062A   21208.18686858  .00000141  00000-0  00000+0 0  9997
2 39375   1.4204  93.4558 0001220 329.3425 344.4632  1.00272104 28213
SES-8                   
1 39460U 13071A   21208.05525522 -.00000284  00000-0  00000+0 0  9997
2 39460   0.0673 260.2558 0002874 220.7189 298.8586  1.00272790 27966
INMARSAT 5-F1           
1 39476U 13073A   21207.76174670  .00000013  00000-0  00000+0 0  9996
2 39476   0.0176  67.1663 0000579  91.5915 122.7117  1.00269692 28012
TKSAT-1 (TUPAC KATARI)  
1 39481U 13075A   21208.37782483 -.00000209  00000-0  00000+0 0  9997
2 39481   0.0305 254.2448 0002604 226.7549 233.0524  1.00274014 27941
EXPRESS-AM5             
1 39487U 13077A   21208.49492388 -.00000294  00000-0  00000+0 0  9994
2 39487   0.0501 257.5390 0001057 151.1647 214.8551  1.00271309 28445
GSAT-14                 
1 39498U 14001A   21208.05535476 -.00000091  00000-0  00000+0 0  9997
2 39498   0.0197  83.4346 0002767 140.9082 174.5337  1.00269956 27676
THAICOM 6               
1 39500U 14002A   21207.60396682 -.00000137  00000-0  00000-0 0  9998
2 39500   0.0657 118.2720 0005260  19.9596 102.1887  1.00271196 27542
TDRS 12                 
1 39504U 14004A   21208.41327569 -.00000280  00000-0  00000+0 0  9990
2 39504   4.1771 342.3354 0003688 151.0922 279.6942  1.00276694 27544
ABS-2                   
1 39508U 14006A   21207.76414404 -.00000101  00000-0  00000+0 0  9990
2 39508   0.0193  59.6040 0003715  39.2137 195.8233  1.00271779 27403
ATHENA-FIDUS            
1 39509U 14006B   21207.75677424  .00000139  00000-0  00000+0 0  9993
2 39509   0.0208 104.7241 0001245   9.4326 140.7131  1.00271154 27583
TURKSAT 4A              
1 39522U 14007A   21208.06854977  .00000131  00000-0  00000+0 0  9996
2 39522   0.0670 266.7570 0002140 287.9352 176.9378  1.00269515 27304
EXPRESS-AT1             
1 39612U 14010A   21208.40635098  .00000063  00000-0  00000+0 0  9993
2 39612   0.0639 248.3426 0001156 245.6275  13.6240  1.00282938 27147
EXPRESS-AT2             
1 39613U 14010B   21207.56523557 -.00000298  00000-0  00000+0 0  9997
2 39613   0.0484 236.3109 0000113  45.3171   6.1390  1.00269378 26968
AMAZONAS 4A             
1 39616U 14011A   21208.35049368 -.00000267  00000-0  00000+0 0  9998
2 39616   0.1179  83.8927 0003568  54.9572 218.5708  1.00272307 26962
ASTRA 5B                
1 39617U 14011B   21207.83058887  .00000139  00000-0  00000+0 0  9994
2 39617   0.0290  40.8344 0004087  88.7370 145.6373  1.00270025 26952
IRNSS-1B                
1 39635U 14017A   21207.75535427  .00000099  00000-0  00000+0 0  9996
2 39635  28.9899 270.5177 0022569 187.5069 173.6339  1.00272143 26899
LUCH 5V                 
1 39727U 14023A   21207.77898589 -.00000284  00000-0  00000+0 0  9995
2 39727   0.7707  61.8592 0004554  59.4380 198.4757  1.00274509544595
KAZSAT-3                
1 39728U 14023B   21208.40687441  .00000047  00000-0  00000+0 0  9996
2 39728   0.0273 244.6932 0000255 235.6810  29.8575  1.00270674 26539
EUTELSAT 3B             
1 39773U 14030A   21207.74988260  .00000005  00000-0  00000+0 0  9997
2 39773   0.0644 353.7101 0005230 159.1328  64.8481  1.00275613 26301
USA 254                 
1 40100U 14043B   21204.39712534  .00000004  00000-0  00000+0 0  9993
2 40100   0.0926  99.6960 0003347 349.3237 173.0461  1.00156240   800
ASIASAT 8 (AMOS-7)      
1 40107U 14046A   21208.10730941 -.00000049  00000-0  00000+0 0  9998
2 40107   0.0694 265.0948 0002533 205.2595 229.3761  1.00269742 25590
ASIASAT 6               
1 40141U 14052A   21208.41911586 -.00000376  00000-0  00000+0 0  9996
2 40141   0.0472 260.2906 0000948 221.5052  94.2740  1.00270101 25250
OPTUS 10                
1 40146U 14054A   21208.43243637 -.00000161  00000-0  00000+0 0  9992
2 40146   0.0456 136.1439 0004091   3.5129 117.3329  1.00271060 25216
MEASAT-3B               
1 40147U 14054B   21207.55211873 -.00000257  00000-0  00000-0 0  9999
2 40147   0.0259   5.1218 0001104 112.6519 116.9278  1.00270787 24992
LUCH (OLYMP)            
1 40258U 14058A   21208.66416299  .00000059  00000-0  00000+0 0  9996
2 40258   0.0703 249.6020 0001333 223.9134 127.9966  1.00274605 25033
HIMAWARI-8              
1 40267U 14060A   21207.77722944 -.00000292  00000-0  00000+0 0  9997
2 40267   0.0520 263.2595 0000988 237.5473 224.2930  1.00269277 24952
IRNSS-1C                
1 40269U 14061A   21207.80191309 -.00000176  00000-0  00000+0 0  9990
2 40269   2.3485 145.8182 0021194  15.9508 154.5573  1.00269116 24911
INTELSAT 30 (IS-30)     
1 40271U 14062A   21208.55730382 -.00000164  00000-0  00000+0 0  9994
2 40271   0.0173  72.7447 0001716   2.3062 335.9711  1.00268146 24863
ARSAT 1                 
1 40272U 14062B   21208.38087808 -.00000274  00000-0  00000+0 0  9996
2 40272   0.0357 279.6058 0001692 213.9973 236.9632  1.00271090 24985
EXPRESS-AM6             
1 40277U 14064A   21208.47756394  .00000084  00000-0  00000+0 0  9994
2 40277   0.0531 252.6290 0000696 305.6666 331.9613  1.00272027 24766
GSAT-16                 
1 40332U 14078A   21207.76785618  .00000069  00000-0  00000+0 0  9996
2 40332   0.1016 274.7304 0007492 177.7298 183.7128  1.00271322 24343
DIRECTV 14              
1 40333U 14078B   21207.51411573 -.00000141  00000-0  00000-0 0  9999
2 40333   0.0282 109.3877 0000456 326.9328 313.9384  1.00272973 24132
YAMAL 401               
1 40345U 14082A   21208.35535514 -.00000242  00000-0  00000+0 0  9993
2 40345   0.0113  47.2826 0000207 272.3525 203.4376  1.00269324 24500
ASTRA 2G                
1 40364U 14089A   21207.82757213  .00000134  00000-0  00000+0 0  9993
2 40364   0.0354 336.3090 0004205 105.9942 188.4956  1.00270916 24100
FENGYUN 2G              
1 40367U 14090A   21207.84082443 -.00000318  00000-0  00000+0 0  9991
2 40367   1.1256  92.3065 0001498 281.6712 332.9757  1.00279530 24123
MUOS-3                  
1 40374U 15002A   21208.39195705 -.00000142  00000-0  00000+0 0  9995
2 40374   2.5641   0.1681 0057592 176.1445 254.5713  1.00271266 23917
INMARSAT 5-F2           
1 40384U 15005A   21208.09710281 -.00000300  00000-0  00000+0 0  9994
2 40384   0.0177  65.5682 0000282 144.9908  74.3786  1.00270210 23761
ABS-3A                  
1 40424U 15010A   21207.74866130 -.00000042  00000-0  00000+0 0  9994
2 40424   0.0139  52.6973 0002498 350.6687 167.8033  1.00269918 23480
EUTELSAT 115 WEST B     
1 40425U 15010B   21208.38243892 -.00000039  00000-0  00000+0 0  9996
2 40425   0.0088 201.8228 0000205  97.3658  28.8493  1.00270601 23524
EXPRESS-AM7             
1 40505U 15012A   21208.47494685  .00000137  00000-0  00000+0 0  9993
2 40505   0.0197  78.8056 0003201  48.1757  29.3433  1.00273786 23457
IRNSS-1D                
1 40547U 15018A   21207.62300340 -.00000282  00000-0  00000+0 0  9997
2 40547  29.2436 270.5796 0020950 188.4139 181.6113  1.00277078 23338
BEIDOU 17               
1 40549U 15019A   21207.77868495 -.00000179  00000-0  00000+0 0  9991
2 40549  52.4316 316.5369 0039672 188.3838 174.0157  1.00257530 23175
THOR 7                  
1 40613U 15022A   21208.09077247 -.00000024  00000-0  00000+0 0  9999
2 40613   0.0156 114.6547 0002642  16.5040 205.8506  1.00269408 22916
